NORAD_CAT_ID,OBJECT_NAME,OBJECT_TYPE,EPOCH,MEAN_MOTION,ECCENTRICITY,INCLINATION,RA_OF_ASC_NODE,ARG_OF_PERICENTER,MEAN_ANOMALY,BSTAR,MEAN_MOTION_DOT,MEAN_MOTION_DDOT,TLE_LINE0,TLE_LINE1,TLE_LINE2,SEMIMAJOR_AXIS,PERIOD,APOGEE,PERIGEE,DECAYED
52286.0,STARLINK-3802,PAYLOAD,2022-06-20 06:00:00,15.49586804,0.0001159,53.2165,81.4038,86.3716,72.5453,-0.0023585,-0.00130715,0.0,0 STARLINK-3802,1 52286U 22041AB  22171.25001157 -.00130715  00000-0 -23585-2 0  9990,2 52286  53.2165  81.4038 0001159  86.3716  72.5453 15.49586804 10599,6796.071,92.928,418.724,417.148,0.0
52286.0,STARLINK-3802,PAYLOAD,2022-06-20 12:00:00,15.49654796,0.0001218,53.2174,80.205,78.084,36.2155,-0.013857,-0.00722259,0.0,0 STARLINK-3802,1 52286U 22041AB  22171.50001157 -.00722259  00000-0 -13857-1 0  9998,2 52286  53.2174  80.2050 0001218  78.0840  36.2155 15.49654796 10628,6795.871999999999,92.924,418.565,416.909,0.0
52286.0,STARLINK-3802,PAYLOAD,2022-06-20 14:00:01,15.4952465,0.0001247,53.2174,79.8058,84.5479,134.892,-0.01384,-0.00718359,0.0,0 STARLINK-3802,1 52286U 22041AB  22171.58334491 -.00718359  00000-0 -13840-1 0  9994,2 52286  53.2174  79.8058 0001247  84.5479 134.8920 15.49524650  1307,6796.253000000002,92.932,418.965,417.27,0.0
52286.0,STARLINK-3802,PAYLOAD,2022-06-20 22:00:00,15.49015318,0.0001262,53.2176,78.214,78.4945,201.1163,-0.014111,-0.00719264,0.0,0 STARLINK-3802,1 52286U 22041AB  22171.91667824 -.00719264  00000-0 -14111-1 0  9998,2 52286  53.2176  78.2140 0001262  78.4945 201.1163 15.49015318  1304,6797.7419999999975,92.962,420.465,418.749,0.0
52286.0,STARLINK-3802,PAYLOAD,2022-06-21 14:00:01,15.47994508,0.0001057,53.2174,75.0302,80.1521,317.9657,-0.014612,-0.00718527,0.0,0 STARLINK-3802,1 52286U 22041AB  22172.58334491 -.00718527  00000-0 -14612-1 0  9990,2 52286  53.2174  75.0302 0001057  80.1521 317.9657 15.47994508 10791,6800.73,93.024,423.314,421.877,0.0
52286.0,STARLINK-3802,PAYLOAD,2022-06-21 22:00:00,15.47485938,0.0001186,53.2175,73.4422,72.4242,24.0256,-0.014915,-0.00720354,0.0,0 STARLINK-3802,1 52286U 22041AB  22172.91667824 -.00720354  00000-0 -14915-1 0  9993,2 52286  53.2175  73.4422 0001186  72.4242  24.0256 15.47485938  1304,6802.22,93.054,424.892,423.279,0.0
52286.0,STARLINK-3802,PAYLOAD,2022-06-22 14:00:01,15.46465524,0.0001279,53.2171,70.2654,79.8341,131.4457,-0.015433,-0.00719434,0.0,0 STARLINK-3802,1 52286U 22041AB  22173.58334491 -.00719434  00000-0 -15433-1 0  9991,2 52286  53.2171  70.2654 0001279  79.8341 131.4457 15.46465524 10951,6805.212,93.116,427.948,426.207,0.0
52286.0,STARLINK-3802,PAYLOAD,2022-06-22 22:00:00,15.45954373,0.0001281999999999,53.2173,68.6812,81.4774,186.2969,-0.015652,-0.00717027,0.0,0 STARLINK-3802,1 52286U 22041AB  22173.91667824 -.00717027  00000-0 -15652-1 0  9996,2 52286  53.2173  68.6812 0001282  81.4774 186.2969 15.45954373  1302,6806.712,93.146,429.45,427.705,0.0
52286.0,STARLINK-3802,PAYLOAD,2022-06-23 14:00:01,15.44934192,0.0001057,53.2172,65.5118,86.8847,292.043,-0.0162229999999999,-0.00717449,0.0,0 STARLINK-3802,1 52286U 22041AB  22174.58334491 -.00717449  00000-0 -16223-1 0  9994,2 52286  53.2172  65.5118 0001057  86.8847 292.0430 15.44934192 11100,6809.708000000001,93.208,432.293,430.854,0.0
52286.0,STARLINK-3802,PAYLOAD,2022-06-23 22:00:00,15.44426658,0.0001151,53.2173,63.9314,77.1106,356.4718,-0.016589,-0.00720738,0.0,0 STARLINK-3802,1 52286U 22041AB  22174.91667824 -.00720738  00000-0 -16589-1 0  9990,2 52286  53.2173  63.9314 0001151  77.1106 356.4718 15.44426658  1305,6811.2,93.238,433.849,432.281,0.0
52286.0,STARLINK-3802,PAYLOAD,2022-06-24 14:00:01,15.43406832,0.0001267,53.2171,60.769,81.2427,99.8164,-0.0171979999999999,-0.00721617,0.0,0 STARLINK-3802,1 52286U 22041AB  22175.58334491 -.00721617  00000-0 -17198-1 0  9999,2 52286  53.2171  60.7690 0001267  81.2427  99.8164 15.43406832 11265,6814.2,93.3,436.929,435.202,0.0
52286.0,STARLINK-3802,PAYLOAD,2022-06-24 22:00:01,15.42894115,0.0001375999999999,53.2174,59.1922,71.9412,162.0005,-0.017362,-0.00716376,0.0,0 STARLINK-3802,1 52286U 22041AB  22175.91668981 -.00716376  00000-0 -17362-1 0  9999,2 52286  53.2174  59.1922 0001376  71.9412 162.0005 15.42894115  1304,6815.71,93.331,438.513,436.637,0.0
52286.0,STARLINK-3802,PAYLOAD,2022-06-25 14:00:01,15.41873911,0.0001148,53.2173,56.0373,81.1312,256.546,-0.01797,-0.00716353,0.0,0 STARLINK-3802,1 52286U 22041AB  22176.58334491 -.00716353  00000-0 -17970-1 0  9999,2 52286  53.2173  56.0373 0001148  81.1312 256.5460 15.41873911  1302,6818.715999999999,93.393,441.364,439.798,0.0
52286.0,STARLINK-3802,PAYLOAD,2022-06-25 22:00:00,15.41366953,0.0001190999999999,53.2175,54.4643,66.3076,322.3473,-0.018389,-0.00720376,0.0,0 STARLINK-3802,1 52286U 22041AB  22176.91667824 -.00720376  00000-0 -18389-1 0  9990,2 52286  53.2175  54.4643 0001191  66.3076 322.3473 15.41366953 11463,6820.2109999999975,93.424,442.888,441.264,0.0
52286.0,STARLINK-3802,PAYLOAD,2022-06-26 14:00:01,15.40346506,0.0001281,53.2174,51.3165,71.0479,57.7946,-0.019025,-0.0072035,0.0,0 STARLINK-3802,1 52286U 22041AB  22177.58335648 -.00720350  00000-0 -19025-1 0  9990,2 52286  53.2174  51.3165 0001281  71.0479  57.7946 15.40346506  1304,6823.223000000001,93.485,445.962,444.214,0.0
52286.0,STARLINK-3802,PAYLOAD,2022-06-26 20:00:01,15.39963901,0.0001283,53.2176,50.1395,59.1271,16.5641,-0.019244,-0.00719508,0.0,0 STARLINK-3802,1 52286U 22041AB  22177.83334491 -.00719508  00000-0 -19244-1 0  9999,2 52286  53.2176  50.1395 0001283  59.1271  16.5641 15.39963901 11608,6824.353,93.509,447.094,445.342,0.0
52286.0,STARLINK-3802,PAYLOAD,2022-06-26 22:00:00,15.39835396,0.0001474,53.2174,49.7471,62.2516,115.6678,-0.019277,-0.0071783999999999,0.0,0 STARLINK-3802,1 52286U 22041AB  22177.91667824 -.00717840  00000-0 -19277-1 0  9990,2 52286  53.2174  49.7471 0001474  62.2516 115.6678 15.39835396  1307,6824.733,93.516,447.604,445.592,0.0
52286.0,STARLINK-3802,PAYLOAD,2022-06-27 14:00:01,15.38815254,0.0001284999999999,53.2175,46.6065,83.3268,191.039,-0.019932,-0.00717624,0.0,0 STARLINK-3802,1 52286U 22041AB  22178.58334491 -.00717624  00000-0 -19932-1 0  9993,2 52286  53.2175  46.6065 0001285  83.3268 191.0390 15.38815254  1300,6827.749,93.578,450.491,448.736,0.0
52286.0,STARLINK-3802,PAYLOAD,2022-06-27 22:00:00,15.38306409,0.0001227,53.2174,45.041,78.4665,243.2009,-0.020315,-0.00719152,0.0,0 STARLINK-3802,1 52286U 22041AB  22178.91667824 -.00719152  00000-0 -20315-1 0  9994,2 52286  53.2174  45.0410 0001227  78.4665 243.2009 15.38306409 11774,6829.254,93.609,451.957,450.281,0.0
52286.0,STARLINK-3802,PAYLOAD,2022-06-28 14:00:01,15.37284856,0.0001145,53.2174,41.9076,79.2666,335.171,-0.020919,-0.00716415,0.0,0 STARLINK-3802,1 52286U 22041AB  22179.58334491 -.00716415  00000-0 -20919-1 0  9998,2 52286  53.2174  41.9076 0001145  79.2666 335.1710 15.37284856  1304,6832.279,93.672,454.927,453.362,0.0
52286.0,STARLINK-3802,PAYLOAD,2022-06-28 22:00:00,15.36777764,0.0001361,53.2173,40.3458,60.3582,39.542,-0.021413,-0.00720993,0.0,0 STARLINK-3802,1 52286U 22041AB  22179.91667824 -.00720993  00000-0 -21413-1 0  9990,2 52286  53.2173  40.3458 0001361  60.3582  39.5420 15.36777764  1305,6833.781999999997,93.703,456.577,454.717,0.0
52286.0,STARLINK-3802,PAYLOAD,2022-06-29 06:00:00,15.36266187,0.0001255,53.2173,38.7822,92.7784,52.0287,-0.021685,-0.00718339,0.0,0 STARLINK-3802,1 52286U 22041AB  22180.25001157 -.00718339  00000-0 -21685-1 0  9992,2 52286  53.2173  38.7822 0001255  92.7784  52.0287 15.36266187 11984,6835.299,93.734,458.022,456.306,0.0
52286.0,STARLINK-3802,PAYLOAD,2022-06-29 14:00:01,15.35756048,0.0001334,53.2173,37.2196,85.5087,103.5381,-0.022022,-0.00717642,0.0,0 STARLINK-3802,1 52286U 22041AB  22180.58334491 -.00717642  00000-0 -22022-1 0  9990,2 52286  53.2173  37.2196 0001334  85.5087 103.5381 15.35756048  1307,6836.813,93.765,459.59,457.766,0.0
52286.0,STARLINK-3802,PAYLOAD,2022-06-29 22:00:00,15.3524517,0.0001361999999999,53.2173,35.6612,77.0559,155.6169,-0.022346,-0.00716419,0.0,0 STARLINK-3802,1 52286U 22041AB  22180.91667824 -.00716419  00000-0 -22346-1 0  9996,2 52286  53.2173  35.6612 0001362  77.0559 155.6169 15.35245170  1304,6838.329000000002,93.796,461.126,459.263,0.0
52286.0,STARLINK-3802,PAYLOAD,2022-06-30 14:00:01,15.34224145,0.0001218,53.2175,32.5423,81.6422,236.4469,-0.023008,-0.00714064,0.0,0 STARLINK-3802,1 52286U 22041AB  22181.58334491 -.00714064  00000-0 -23008-1 0  9991,2 52286  53.2175  32.5423 0001218  81.6422 236.4469 15.34224145  1301,6841.363,93.859,464.061,462.395,0.0
52286.0,STARLINK-3802,PAYLOAD,2022-06-30 22:00:00,15.33717194,0.0001258,53.2173,30.9877,69.5052,290.3701,-0.023579,-0.00719601,0.0,0 STARLINK-3802,1 52286U 22041AB  22181.91667824 -.00719601  00000-0 -23579-1 0  9992,2 52286  53.2173  30.9877 0001258  69.5052 290.3701 15.33717194  1300,6842.87,93.89,465.596,463.875,0.0
52286.0,STARLINK-3802,PAYLOAD,2022-07-01 14:00:01,15.32694737,0.0001245,53.2175,27.8759,78.5081,3.1074,-0.024187,-0.00714963,0.0,0 STARLINK-3802,1 52286U 22041AB  22182.58334491 -.00714963  00000-0 -24187-1 0  9999,2 52286  53.2175  27.8759 0001245  78.5081   3.1074 15.32694737 12338,6845.913000000001,93.952,468.631,466.926,0.0
52286.0,STARLINK-3802,PAYLOAD,2022-07-01 22:00:00,15.32186741,0.0001385999999999,53.2175,26.325,66.8719,54.6917,-0.024707,-0.00718444,0.0,0 STARLINK-3802,1 52286U 22041AB  22182.91667824 -.00718444  00000-0 -24707-1 0  9991,2 52286  53.2175  26.3250 0001386  66.8719  54.6917 15.32186741  1305,6847.426,93.983,470.24,468.342,0.0
52286.0,STARLINK-3802,PAYLOAD,2022-07-02 14:00:01,15.31165672,0.0001405,53.2175,23.2207,71.4752,128.1512,-0.025417,-0.00715952,0.0,0 STARLINK-3802,1 52286U 22041AB  22183.58334491 -.00715952  00000-0 -25417-1 0  9996,2 52286  53.2175  23.2207 0001405  71.4752 128.1512 15.31165672 12493,6850.47,94.046,473.298,471.37300000000016,0.0
